{"type":"FeatureCollection","features":[{"type":"Feature","properties":{"nom":"Burkina Faso","iso":"BFA"},"geometry":{"type":"MultiLineString","coordinates":[[[0.9921,13.084],[0.9918,13.3709],[1.1686,13.3226],[1.2125,13.3809],[1.2456,13.3393],[1.281,13.3586],[1.0141,13.4874],[0.99,13.5764],[0.7816,13.6427],[0.7969,13.6773],[0.7726,13.6921],[0.6053,13.7098],[0.6205,13.7866],[0.4765,13.9104],[0.4805,13.9658],[0.4552,13.95],[0.359,14.1252],[0.4038,14.2497],[0.3859,14.2887],[0.192,14.4606],[0.1776,14.5827]],[[-1.5927,10.9883],[-1.5869,11.019],[-1.4318,11.018],[-1.3974,10.9902],[-0.933,10.9942],[-0.8787,10.9591],[-0.8141,11.0028],[-0.6564,10.9809],[-0.6731,10.9538],[-0.6211,10.9022],[-0.5697,10.9813],[-0.4375,11.0297],[-0.4327,11.0983],[-0.3996,11.12],[-0.3611,11.0681],[-0.274,11.1219],[-0.2733,11.1733],[0.5029,11.0091],[0.4947,10.931],[0.6563,10.9974],[0.9122,10.9965],[0.9786,11.0905],[1.1102,11.0304],[1.0866,11.1133],[1.0509,11.1277],[1.1183,11.1716],[1.1601,11.1644],[1.1293,11.2565],[1.2521,11.2453],[1.2763,11.2642],[1.2591,11.321],[1.3268,11.291],[1.32,11.3628],[1.3883,11.3995],[1.3844,11.4422],[1.4345,11.4722],[1.5318,11.4473],[1.5544,11.4715],[1.6205,11.3904],[1.8417,11.4444],[2.0192,11.4277],[2.3057,11.6744],[2.3037,11.7353],[2.3724,11.7931],[2.4026,11.8706],[2.4054,11.9016],[2.0647,12.3562],[2.0821,12.3935],[2.1552,12.42],[2.2743,12.4284],[2.2259,12.583],[2.1042,12.7309],[1.9775,12.7372],[1.8654,12.6054],[1.576,12.6331],[1.1181,12.9998],[0.9975,12.9997],[0.9921,13.084]]]}},{"type":"Feature","properties":{"nom":"Niger","iso":"NER"},"geometry":{"type":"MultiLineString","coordinates":[[[0.1667,14.5231],[0.1894,14.4647],[0.3211,14.3628],[0.4108,14.2458],[0.3547,14.1167],[0.4242,13.9836],[0.4711,13.9556],[0.465,13.9136],[0.6167,13.7781],[0.6022,13.7039],[0.7728,13.6883],[0.7744,13.6442],[0.9022,13.6228],[0.9953,13.5681],[1.0317,13.4625],[1.2444,13.3931],[1.2853,13.35],[1.2028,13.3672],[1.1794,13.3133],[0.9917,13.3717],[0.9892,13.0472],[1.0114,13.0239],[1.1172,13.0111],[1.5783,12.63],[1.8717,12.6089],[1.9281,12.7006],[1.9889,12.7311],[2.1425,12.6944],[2.2208,12.5936],[2.2642,12.4186],[2.1617,12.4156],[2.0583,12.3572],[2.3971,11.8957],[2.4082,11.9543],[2.4653,11.9799],[2.3903,12.1126],[2.3815,12.2513],[2.4623,12.253],[2.5172,12.294],[2.5436,12.272],[2.6617,12.3061],[2.6951,12.2814],[2.7326,12.365],[2.7657,12.3524],[2.8409,12.4066],[3.2539,12.0172],[3.3122,11.89],[3.4736,11.8536],[3.6059,11.692],[3.6883,11.7497],[3.6686,11.8125],[3.6317,11.8253],[3.6169,11.9197],[3.6717,11.9756],[3.6369,12.1078],[3.6686,12.2556],[3.6578,12.5289],[3.9528,12.7489],[4.105,12.9964],[4.1397,13.1772],[4.1425,13.4769],[4.2478,13.4814],[4.47,13.6869],[4.8856,13.7814],[4.9236,13.7364],[5.2861,13.7522],[5.365,13.8475],[5.5436,13.8906],[6.1608,13.6431]]]}},{"type":"Feature","properties":{"nom":"Nigeria","iso":"NGA"},"geometry":{"type":"MultiLineString","coordinates":[[[5.6771,13.8205],[5.53,13.8857],[5.3504,13.8341],[5.2475,13.7429],[4.9502,13.7344],[4.8735,13.7814],[4.7084,13.7585],[4.3944,13.6535],[4.2324,13.4994],[4.1265,13.4682],[4.1432,13.1808],[4.105,12.9964],[3.9528,12.7489],[3.6578,12.5289],[3.6661,12.2071],[3.6284,12.1253],[3.6717,11.9756],[3.6187,11.9082],[3.6649,11.7592],[3.6139,11.6996],[3.5109,11.67],[3.4856,11.3134],[3.6631,11.1478],[3.7225,11.1324],[3.7172,11.0198],[3.7753,10.8986],[3.7486,10.8031],[3.8488,10.6828],[3.855,10.585],[3.7936,10.4056],[3.6839,10.4481],[3.6372,10.4117],[3.5819,10.2753],[3.6839,10.1706],[3.6094,9.9481],[3.5253,9.8442],[3.3529,9.8241],[3.3308,9.7689],[3.3528,9.7031],[3.1417,9.4411],[3.1664,9.3028],[3.095,9.0906],[2.7894,9.0439],[2.743,8.7708],[2.7628,8.5192],[2.7092,8.3389],[2.7536,8.2069],[2.6926,7.9063],[2.7431,7.7964],[2.7166,7.5986],[2.7497,7.0942],[2.7031,6.9643],[2.7507,6.8684],[2.724,6.7816],[2.7869,6.7502],[2.7282,6.6241],[2.7432,6.5632],[2.7003,6.5083],[2.6998,6.3752],[3.8602,6.4357],[4.3508,6.3704],[4.4832,6.3261],[4.9486,5.9244],[5.1701,5.5938],[5.2472,5.622],[5.3735,5.5985],[5.445,5.6544],[5.5011,5.6206],[5.5106,5.5961],[5.4179,5.6399],[5.3873,5.5857],[5.2074,5.5988],[5.1571,5.5371],[5.2398,5.4402],[5.431,5.3855],[5.4723,5.3994],[5.5243,5.5134],[5.6,5.5167],[5.5195,5.5011],[5.5269,5.4071],[5.4671,5.3717],[5.3206,5.3644],[5.3527,5.1679],[5.388,5.139],[5.4439,5.1467],[5.3752,5.1262],[5.4438,4.9233],[5.6358,4.5982],[5.843,4.4024],[6.009,4.3015]]]}},{"type":"Feature","properties":{"nom":"Togo","iso":"TGO"},"geometry":{"type":"MultiLineString","coordinates":[[[-0.1237,11.137],[-0.143,11.1058],[-0.095,11.0861],[-0.0047,11.1078],[0.0344,10.9927],[-0.0061,10.9632],[-0.0218,10.8187],[-0.0901,10.7116],[-0.0592,10.6323],[0.1427,10.5263],[0.1904,10.4043],[0.2859,10.4216],[0.3384,10.3252],[0.3187,10.3086],[0.3969,10.3125],[0.3616,10.2581],[0.3531,10.0987],[0.4177,10.0576],[0.4102,10.021],[0.3605,10.0275],[0.3873,9.9374],[0.3552,9.9219],[0.3189,9.7279],[0.3509,9.6748],[0.323,9.6509],[0.2793,9.6863],[0.2635,9.6572],[0.2959,9.5956],[0.3563,9.6251],[0.3837,9.5915],[0.2401,9.5746],[0.2433,9.5245],[0.3112,9.5066],[0.229,9.4648],[0.2758,9.4274],[0.3375,9.4517],[0.3594,9.4992],[0.4487,9.4995],[0.567,9.4059],[0.5558,9.3112],[0.5058,9.2564],[0.5336,9.2094],[0.4768,9.145],[0.4562,9.0439],[0.5276,8.8778],[0.4913,8.8004],[0.3801,8.7928],[0.4009,8.7569],[0.3739,8.7543],[0.4696,8.5956],[0.6457,8.4935],[0.6517,8.4224],[0.6965,8.4047],[0.73,8.3409],[0.7311,8.2867],[0.6384,8.2603],[0.5886,8.2025],[0.6139,8.185],[0.5846,8.0935],[0.6271,7.7043],[0.5904,7.7031],[0.586,7.6221],[0.5181,7.5926],[0.5195,7.4601],[0.5687,7.3922],[0.6441,7.4012],[0.6583,7.3173],[0.5914,7.1138],[0.6142,7.0993],[0.6035,7.0223],[0.5212,6.9711],[0.566,6.9211],[0.5323,6.8285],[0.5798,6.8073],[0.5814,6.7615],[0.65,6.7376],[0.6572,6.6076],[0.7413,6.5842],[0.7124,6.5292],[0.7496,6.4441],[0.8931,6.3333],[1.0035,6.3355],[1.0829,6.1696],[1.1994,6.1691],[1.1996,6.1124],[1.8025,6.2803],[1.7526,6.4751],[1.6938,6.5044],[1.6976,6.5552],[1.6102,6.6134],[1.6156,6.651],[1.5751,6.6885],[1.6253,6.7611],[1.5943,6.7995],[1.6058,6.9051],[1.5592,6.9972],[1.6425,6.9956],[1.6558,7.5325],[1.6347,8.3578],[1.6131,8.3747],[1.6608,8.4969],[1.6247,8.5481],[1.6064,9.0997],[1.4167,9.3211],[1.3906,9.4875],[1.3611,9.4856],[1.3375,9.5425],[1.3739,9.6467],[1.355,9.9953],[0.7767,10.3767],[0.8025,10.7142],[0.8794,10.7997],[0.9122,10.9962],[0.6563,10.9974],[0.4947,10.931],[0.5029,11.0091],[-0.1237,11.137]]]}},{"type":"Feature","properties":{"nom":"Ghana","iso":"GHA"},"geometry":{"type":"MultiLineString","coordinates":[[[1.061,6.0159],[1.1918,6.1044],[1.1917,6.155],[1.0912,6.1588],[0.9963,6.3236],[0.9038,6.3213],[0.7569,6.4325],[0.7187,6.511],[0.7372,6.5772],[0.681,6.5843],[0.6376,6.6322],[0.645,6.7459],[0.5764,6.7616],[0.584,6.8037],[0.5303,6.8258],[0.5582,6.9143],[0.5163,6.9665],[0.5996,7.0134],[0.5989,7.1321],[0.6584,7.3111],[0.6462,7.3902],[0.56,7.3909],[0.5018,7.4637],[0.5186,7.5876],[0.578,7.617],[0.5898,7.707],[0.6174,7.7052],[0.5917,8.1971],[0.6408,8.2571],[0.7252,8.2841],[0.7297,8.3328],[0.6437,8.492],[0.4661,8.6065],[0.3817,8.7495],[0.39,8.7905],[0.4934,8.8088],[0.5288,8.8758],[0.4529,9.0469],[0.4704,9.1463],[0.5264,9.2053],[0.5051,9.2628],[0.5628,9.4022],[0.4475,9.4937],[0.3537,9.4914],[0.3309,9.4451],[0.2729,9.4224],[0.2271,9.4555],[0.2286,9.4803],[0.3055,9.5033],[0.2371,9.5196],[0.2379,9.5704],[0.3763,9.585],[0.315,9.7246],[0.3489,9.9107],[0.3824,9.9376],[0.3531,10.0289],[0.4042,10.017],[0.4146,10.0534],[0.3478,10.0957],[0.3591,10.2526],[0.393,10.3017],[0.3189,10.3054],[0.2815,10.416],[0.1927,10.3969],[0.1319,10.5307],[-0.0639,10.641],[-0.0881,10.7146],[-0.0281,10.8179],[-0.0117,10.9565],[0.0321,10.9847],[0.0178,11.0922],[-0.1117,11.0901],[-0.1459,11.1049],[-0.142,11.139],[-0.2733,11.1733],[-0.274,11.1219],[-0.3611,11.0681],[-0.3996,11.12],[-0.4327,11.0983],[-0.4375,11.0297],[-0.5697,10.9813],[-0.6211,10.9022],[-0.6731,10.9538],[-0.6564,10.9809],[-0.8141,11.0028],[-0.8787,10.9591],[-0.933,10.9942],[-1.3974,10.9902],[-1.4318,11.018],[-1.5869,11.019],[-1.5927,10.9883]],[[-1.5939,5.0326],[-1.247,5.1005],[-1.0829,5.1951],[-0.809,5.2136],[-0.7241,5.2983],[-0.4958,5.3787],[-0.3691,5.4948],[-0.1313,5.5611],[0.0694,5.6893],[0.2864,5.7765],[0.744,5.7596],[0.9248,5.7841],[0.9811,5.8373],[1.061,6.0159]]]}}]}